{"type": "FeatureCollection", "features": [ {"type": "Feature", "properties": {"norad_id": 43010, "name": "FENGYUN 3D", "group": "weather", "lat": -21.070548237667396, "lon": 138.10401120142978, "alt_km": 830.9053904059701, "timestamp": "2025-12-21T03:56:50.501333+00:00", "meta": {"OBJECT_NAME": "FENGYUN 3D", "OBJECT_ID": "2017-072A", "EPOCH": "2025-12-20T21:55:41.240064", "MEAN_MOTION": 14.19685113, "ECCENTRICITY": 0.0001381, "INCLINATION": 98.9897, "RA_OF_ASC_NODE": 321.3461, "ARG_OF_PERICENTER": 157.7429, "MEAN_ANOMALY": 202.3806, "EPHEMERIS_TYPE": 0, "CLASSIFICATION_TYPE": "U", "NORAD_CAT_ID": 43010, "ELEMENT_SET_NO": 999, "REV_AT_EPOCH": 41969, "BSTAR": -6.9107e-05, "MEAN_MOTION_DOT": -1.92e-06, "MEAN_MOTION_DDOT": 0}, "tle": {"line1": "1 43010U 17072A   25354.91367176 -.00000192  00000+0 -69107-4 0  9994", "line2": "2 43010  98.9897 321.3461 0001381 157.7429 202.3806 14.19685113419697"}}, "geometry": {"type": "Point", "coordinates": [138.10401120142978, -21.070548237667396]}}, {"type": "Feature", "properties": {"norad_id": 43013, "name": "NOAA 20 (JPSS-1)", "group": "weather", "lat": -11.410469405763095, "lon": -66.8470516404565, "alt_km": 831.1181732973091, "timestamp": "2025-12-21T03:56:50.501343+00:00", "meta": {"OBJECT_NAME": "NOAA 20 (JPSS-1)", "OBJECT_ID": "2017-073A", "EPOCH": "2025-12-20T19:32:36.047904", "MEAN_MOTION": 14.19527677, "ECCENTRICITY": 0.0002124, "INCLINATION": 98.761, "RA_OF_ASC_NODE": 291.0231, "ARG_OF_PERICENTER": 75.6479, "MEAN_ANOMALY": 284.4933, "EPHEMERIS_TYPE": 0, "CLASSIFICATION_TYPE": "U", "NORAD_CAT_ID": 43013, "ELEMENT_SET_NO": 999, "REV_AT_EPOCH": 41916, "BSTAR": 4.2786e-05, "MEAN_MOTION_DOT": 4.6e-07, "MEAN_MOTION_DDOT": 0}, "tle": {"line1": "1 43013U 17073A   25354.81430611  .00000046  00000+0  42786-4 0  9992", "line2": "2 43013  98.7610 291.0231 0002124  75.6479 284.4933 14.19527677419162"}}, "geometry": {"type": "Point", "coordinates": [-66.8470516404565, -11.410469405763095]}}, {"type": "Feature", "properties": {"norad_id": 43226, "name": "GOES 17", "group": "weather", "lat": -0.2111150049254721, "lon": 59.70654268934149, "alt_km": 35796.36010361861, "timestamp": "2025-12-21T03:56:50.501353+00:00", "meta": {"OBJECT_NAME": "GOES 17", "OBJECT_ID": "2018-022A", "EPOCH": "2025-12-20T14:31:01.216416", "MEAN_MOTION": 1.00270659, "ECCENTRICITY": 0.0003089, "INCLINATION": 0.4767, "RA_OF_ASC_NODE": 89.149, "ARG_OF_PERICENTER": 191.489, "MEAN_ANOMALY": 297.048, "EPHEMERIS_TYPE": 0, "CLASSIFICATION_TYPE": "U", "NORAD_CAT_ID": 43226, "ELEMENT_SET_NO": 999, "REV_AT_EPOCH": 2863, "BSTAR": 0, "MEAN_MOTION_DOT": -1.59e-06, "MEAN_MOTION_DDOT": 0}, "tle": {"line1": "1 43226U 18022A   25354.60487519 -.00000159  00000+0  00000+0 0  9993", "line2": "2 43226   0.4767  89.1490 0003089 191.4890 297.0480  1.00270659 28635"}}, "geometry": {"type": "Point", "coordinates": [59.70654268934149, -0.2111150049254721]}}, {"type": "Feature", "properties": {"norad_id": 43491, "name": "FENGYUN 2H", "group": "weather", "lat": 1.3705173622159397, "lon": -131.4384212103681, "alt_km": 35776.556839436416, "timestamp": "2025-12-21T03:56:50.501373+00:00", "meta": {"OBJECT_NAME": "FENGYUN 2H", "OBJECT_ID": "2018-050A", "EPOCH": "2025-12-20T20:27:18.010656", "MEAN_MOTION": 1.00271185, "ECCENTRICITY": 0.0002377, "INCLINATION": 2.5708, "RA_OF_ASC_NODE": 81.2447, "ARG_OF_PERICENTER": 165.818, "MEAN_ANOMALY": 228.7934, "EPHEMERIS_TYPE": 0, "CLASSIFICATION_TYPE": "U", "NORAD_CAT_ID": 43491, "ELEMENT_SET_NO": 999, "REV_AT_EPOCH": 2765, "BSTAR": 0, "MEAN_MOTION_DOT": -1.08e-06, "MEAN_MOTION_DDOT": 0}, "tle": {"line1": "1 43491U 18050A   25354.85229179 -.00000108  00000+0  00000+0 0  9995", "line2": "2 43491   2.5708  81.2447 0002377 165.8180 228.7934  1.00271185 27659"}}, "geometry": {"type": "Point", "coordinates": [-131.4384212103681, 1.3705173622159397]}}, {"type": "Feature", "properties": {"norad_id": 43689, "name": "METOP-C", "group": "weather", "lat": -8.912930066141161, "lon": -128.57017409953113, "alt_km": 824.9278879263229, "timestamp": "2025-12-21T03:56:50.501383+00:00", "meta": {"OBJECT_NAME": "METOP-C", "OBJECT_ID": "2018-087A", "EPOCH": "2025-12-20T18:36:53.606880", "MEAN_MOTION": 14.21487204, "ECCENTRICITY": 8.61e-05, "INCLINATION": 98.6918, "RA_OF_ASC_NODE": 52.4217, "ARG_OF_PERICENTER": 25.4014, "MEAN_ANOMALY": 334.7205, "EPHEMERIS_TYPE": 0, "CLASSIFICATION_TYPE": "U", "NORAD_CAT_ID": 43689, "ELEMENT_SET_NO": 999, "REV_AT_EPOCH": 36948, "BSTAR": 6.2653e-05, "MEAN_MOTION_DOT": 9.3e-07, "MEAN_MOTION_DDOT": 0}, "tle": {"line1": "1 43689U 18087A   25354.77562045  .00000093  00000+0  62653-4 0  9996", "line2": "2 43689  98.6918  52.4217 0000861  25.4014 334.7205 14.21487204369482"}}, "geometry": {"type": "Point", "coordinates": [-128.57017409953113, -8.912930066141161]}}, {"type": "Feature", "properties": {"norad_id": 43823, "name": "GEO-KOMPSAT-2A", "group": "weather", "lat": -0.009671772716949712, "lon": -82.53981178183453, "alt_km": 35788.09324249061, "timestamp": "2025-12-21T03:56:50.501395+00:00", "meta": {"OBJECT_NAME": "GEO-KOMPSAT-2A", "OBJECT_ID": "2018-100A", "EPOCH": "2025-12-20T20:37:55.768800", "MEAN_MOTION": 1.00271051, "ECCENTRICITY": 4.17e-05, "INCLINATION": 0.0519, "RA_OF_ASC_NODE": 137.247, "ARG_OF_PERICENTER": 326.1436, "MEAN_ANOMALY": 64.0502, "EPHEMERIS_TYPE": 0, "CLASSIFICATION_TYPE": "U", "NORAD_CAT_ID": 43823, "ELEMENT_SET_NO": 999, "REV_AT_EPOCH": 2584, "BSTAR": 0, "MEAN_MOTION_DOT": -3.2e-06, "MEAN_MOTION_DDOT": 0}, "tle": {"line1": "1 43823U 18100A   25354.85967325 -.00000320  00000+0  00000+0 0  9998", "line2": "2 43823   0.0519 137.2470 0000417 326.1436  64.0502  1.00271051 25841"}}, "geometry": {"type": "Point", "coordinates": [-82.53981178183453, -0.009671772716949712]}}, {"type": "Feature", "properties": {"norad_id": 44387, "name": "METEOR-M2 2", "group": "weather", "lat": -11.82980069476906, "lon": -23.123536618175894, "alt_km": 816.1265580223399, "timestamp": "2025-12-21T03:56:50.501406+00:00", "meta": {"OBJECT_NAME": "METEOR-M2 2", "OBJECT_ID": "2019-038A", "EPOCH": "2025-12-20T21:15:34.148160", "MEAN_MOTION": 14.24293694, "ECCENTRICITY": 0.0001632, "INCLINATION": 98.8972, "RA_OF_ASC_NODE": 334.7142, "ARG_OF_PERICENTER": 132.0374, "MEAN_ANOMALY": 228.0943, "EPHEMERIS_TYPE": 0, "CLASSIFICATION_TYPE": "U", "NORAD_CAT_ID": 44387, "ELEMENT_SET_NO": 999, "REV_AT_EPOCH": 33591, "BSTAR": -7.8629e-05, "MEAN_MOTION_DOT": -2.27e-06, "MEAN_MOTION_DDOT": 0}, "tle": {"line1": "1 44387U 19038A   25354.88581190 -.00000227  00000+0 -78629-4 0  9994", "line2": "2 44387  98.8972 334.7142 0001632 132.0374 228.0943 14.24293694335910"}}, "geometry": {"type": "Point", "coordinates": [-23.123536618175894, -11.82980069476906]}}, {"type": "Feature", "properties": {"norad_id": 47719, "name": "ARKTIKA-M 1", "group": "weather", "lat": 55.79302797927573, "lon": 130.917022011942, "alt_km": 32535.96266941352, "timestamp": "2025-12-21T03:56:50.501418+00:00", "meta": {"OBJECT_NAME": "ARKTIKA-M 1", "OBJECT_ID": "2021-016A", "EPOCH": "2025-12-20T01:15:32.338368", "MEAN_MOTION": 2.00630446, "ECCENTRICITY": 0.72079263, "INCLINATION": 63.1764, "RA_OF_ASC_NODE": 82.997, "ARG_OF_PERICENTER": 269.153, "MEAN_ANOMALY": 15.5565, "EPHEMERIS_TYPE": 0, "CLASSIFICATION_TYPE": "U", "NORAD_CAT_ID": 47719, "ELEMENT_SET_NO": 999, "REV_AT_EPOCH": 3519, "BSTAR": 0, "MEAN_MOTION_DOT": -1.14e-06, "MEAN_MOTION_DDOT": 0}, "tle": {"line1": "1 47719U 21016A   25354.05245762 -.00000114  00000+0  00000+0 0  9993", "line2": "2 47719  63.1764  82.9970 7207926 269.1530  15.5565  2.00630446 35191"}}, "geometry": {"type": "Point", "coordinates": [130.917022011942, 55.79302797927573]}}, {"type": "Feature", "properties": {"norad_id": 49008, "name": "FENGYUN 3E", "group": "weather", "lat": 6.148688439029124, "lon": 176.53585095914914, "alt_km": 827.3476404814237, "timestamp": "2025-12-21T03:56:50.501429+00:00", "meta": {"OBJECT_NAME": "FENGYUN 3E", "OBJECT_ID": "2021-062A", "EPOCH": "2025-12-20T22:03:29.959200", "MEAN_MOTION": 14.19881096, "ECCENTRICITY": 8e-05, "INCLINATION": 98.7468, "RA_OF_ASC_NODE": 355.3431, "ARG_OF_PERICENTER": 207.2867, "MEAN_ANOMALY": 152.8267, "EPHEMERIS_TYPE": 0, "CLASSIFICATION_TYPE": "U", "NORAD_CAT_ID": 49008, "ELEMENT_SET_NO": 999, "REV_AT_EPOCH": 23128, "BSTAR": 4.9148e-05, "MEAN_MOTION_DOT": 6e-07, "MEAN_MOTION_DDOT": 0}, "tle": {"line1": "1 49008U 21062A   25354.91909675  .00000060  00000+0  49148-4 0  9992", "line2": "2 49008  98.7468 355.3431 0000800 207.2867 152.8267 14.19881096231283"}}, "geometry": {"type": "Point", "coordinates": [176.53585095914914, 6.148688439029124]}}, {"type": "Feature", "properties": {"norad_id": 51850, "name": "GOES 18", "group": "weather", "lat": -0.0014573501182548949, "lon": 12.207980792587732, "alt_km": 35783.96241296459, "timestamp": "2025-12-21T03:56:50.501439+00:00", "meta": {"OBJECT_NAME": "GOES 18", "OBJECT_ID": "2022-021A", "EPOCH": "2025-12-20T17:42:56.250720", "MEAN_MOTION": 1.00273162, "ECCENTRICITY": 4.93e-05, "INCLINATION": 0.0209, "RA_OF_ASC_NODE": 179.1955, "ARG_OF_PERICENTER": 158.0343, "MEAN_ANOMALY": 241.0852, "EPHEMERIS_TYPE": 0, "CLASSIFICATION_TYPE": "U", "NORAD_CAT_ID": 51850, "ELEMENT_SET_NO": 999, "REV_AT_EPOCH": 480, "BSTAR": 0, "MEAN_MOTION_DOT": 1.2e-06, "MEAN_MOTION_DDOT": 0}, "tle": {"line1": "1 51850U 22021A   25354.73815105  .00000120  00000+0  00000+0 0  9996", "line2": "2 51850   0.0209 179.1955 0000493 158.0343 241.0852  1.00273162  4805"}}, "geometry": {"type": "Point", "coordinates": [12.207980792587732, -0.0014573501182548949]}}]}